NORAD_CAT_ID,OBJECT_NAME,OBJECT_TYPE,EPOCH,MEAN_MOTION,ECCENTRICITY,INCLINATION,RA_OF_ASC_NODE,ARG_OF_PERICENTER,MEAN_ANOMALY,BSTAR,MEAN_MOTION_DOT,MEAN_MOTION_DDOT,TLE_LINE0,TLE_LINE1,TLE_LINE2,SEMIMAJOR_AXIS,PERIOD,APOGEE,PERIGEE,DECAYED
54778.0,STARLINK-5450,PAYLOAD,2023-10-28 09:59:12,15.08840922,0.000172,53.2177,304.5689,107.1282,252.9898,-3.4809e-05,-8.42e-06,0.0,0 STARLINK-5450,1 54778U 22175W   23301.41611884 -.00000842  00000-0 -34809-4 0  9994,2 54778  53.2177 304.5689 0001720 107.1282 252.9898 15.08840922 49807,6917.878,95.437,540.932,538.553,0.0
54778.0,STARLINK-5450,PAYLOAD,2023-10-28 17:56:08,15.08832498,0.0001713,53.2167,303.0814,103.7485,256.3698,-6.5673e-05,-1.333e-05,0.0,0 STARLINK-5450,1 54778U 22175W   23301.74732566 -.00001333  00000-0 -65673-4 0  9990,2 54778  53.2167 303.0814 0001713 103.7485 256.3698 15.08832498 47699,6917.903,95.438,540.953,538.583,0.0
54778.0,STARLINK-5450,PAYLOAD,2023-10-29 09:49:59,15.08850394,0.0001635,53.2175,300.1075,99.7296,260.388,-1.7588e-05,-5.68e-06,0.0,0 STARLINK-5450,1 54778U 22175W   23302.40971255 -.00000568  00000-0 -17588-4 0  9995,2 54778  53.2175 300.1075 0001635  99.7296 260.3880 15.08850394 47796,6917.849,95.437,540.845,538.583,0.0
54778.0,STARLINK-5450,PAYLOAD,2023-10-30 04:54:37,15.08832899,0.0001855,53.217,296.5392,105.7204,254.3993,6.2108e-06,-1.89e-06,0.0,0 STARLINK-5450,1 54778U 22175W   23303.20460464 -.00000189  00000-0  62108-5 0  9996,2 54778  53.2170 296.5392 0001855 105.7204 254.3993 15.08832899 47914,6917.902,95.438,541.05,538.484,0.0
54778.0,STARLINK-5450,PAYLOAD,2023-10-31 06:20:48,15.08842842,0.0001667,53.218,291.7857,98.5926,261.5255,-3.0834e-05,-7.79e-06,0.0,0 STARLINK-5450,1 54778U 22175W   23304.26444464 -.00000779  00000-0 -30834-4 0  9991,2 54778  53.2180 291.7857 0001667  98.5926 261.5255 15.08842842 48077,6917.872,95.437,540.89,538.583,0.0
54778.0,STARLINK-5450,PAYLOAD,2023-10-31 15:53:06,15.08852904,0.0001562,53.218,290.0018,94.1595,265.9575,-0.00025768,-4.388e-05,0.0,0 STARLINK-5450,1 54778U 22175W   23304.66188525 -.00004388  00000-0 -25768-3 0  9997,2 54778  53.2180 290.0018 0001562  94.1595 265.9575 15.08852904 50296,6917.841,95.437,540.787,538.625,0.0
54778.0,STARLINK-5450,PAYLOAD,2023-11-01 04:36:12,15.08833262,0.0001768,53.2191,287.6219,101.8542,258.2648,1.1805e-05,-1e-06,0.0,0 STARLINK-5450,1 54778U 22175W   23305.19181154 -.00000100  00000-0  11805-4 0  9992,2 54778  53.2191 287.6219 0001768 101.8542 258.2648 15.08833262 48210,6917.901,95.438,540.989,538.543,0.0
54778.0,STARLINK-5450,PAYLOAD,2023-11-01 07:46:58,15.0883924,0.0001594,53.2185,287.0262,93.6945,266.423,6.2381e-05,7.05e-06,0.0,0 STARLINK-5450,1 54778U 22175W   23305.32428654  .00000705  00000-0  62381-4 0  9991,2 54778  53.2185 287.0262 0001594  93.6945 266.4230 15.08839240 48239,6917.883,95.438,540.85,538.645,0.0
54778.0,STARLINK-5450,PAYLOAD,2023-11-01 15:43:54,15.08834743,0.0001546,53.2186,285.539,90.3792,269.7377,4.3983e-05,4.12e-06,0.0,0 STARLINK-5450,1 54778U 22175W   23305.65549049  .00000412  00000-0  43983-4 0  9991,2 54778  53.2186 285.5390 0001546  90.3792 269.7377 15.08834743 50443,6917.896,95.438,540.831,538.692,0.0
54778.0,STARLINK-5450,PAYLOAD,2023-11-02 04:26:59,15.08836298,0.0001838,53.2187,283.1603,87.8826,272.2376,-7.3137e-06,-4.05e-06,0.0,0 STARLINK-5450,1 54778U 22175W   23306.18541433 -.00000405  00000-0 -73137-5 0  9998,2 54778  53.2187 283.1603 0001838  87.8826 272.2376 15.08836298 48361,6917.892,95.438,541.028,538.485,0.0
54778.0,STARLINK-5450,PAYLOAD,2023-11-02 07:37:45,15.08844811,0.0001551,53.218,282.5654,93.7997,266.3172,4.5318e-05,4.33e-06,0.0,0 STARLINK-5450,1 54778U 22175W   23306.31788624  .00000433  00000-0  45318-4 0  9996,2 54778  53.2180 282.5654 0001551  93.7997 266.3172 15.08844811 48380,6917.866,95.437,540.804,538.658,0.0
54778.0,STARLINK-5450,PAYLOAD,2023-11-03 05:53:09,15.08846566,0.0001817,53.2187,278.4024,75.3264,284.7929,2.5084e-05,1.11e-06,0.0,0 STARLINK-5450,1 54778U 22175W   23307.24524724  .00000111  00000-0  25084-4 0  9999,2 54778  53.2187 278.4024 0001817  75.3264 284.7929 15.08846566 50689,6917.86,95.437,540.982,538.468,0.0
54778.0,STARLINK-5450,PAYLOAD,2023-11-03 15:25:28,15.0884066,0.0001698,53.2195,276.619,82.8415,277.277,4.2291e-06,-2.21e-06,0.0,0 STARLINK-5450,1 54778U 22175W   23307.64268940 -.00000221  00000-0  42291-5 0  9991,2 54778  53.2195 276.6190 0001698  82.8415 277.2770 15.08840660 48586,6917.878,95.438,540.918,538.569,0.0
54778.0,STARLINK-5450,PAYLOAD,2023-11-03 21:47:01,15.0883537,0.0001544,53.2186,275.4302,83.9301,276.1867,3.1884e-05,2.19e-06,0.0,0 STARLINK-5450,1 54778U 22175W   23307.90765094  .00000219  00000-0  31884-4 0  9993,2 54778  53.2186 275.4302 0001544  83.9301 276.1867 15.08835370 50786,6917.895,95.438,540.828,538.691,0.0
54778.0,STARLINK-5450,PAYLOAD,2023-11-04 07:19:19,15.08849767,0.0001721,53.2187,273.6423,93.7966,266.3223,3.4996e-05,2.69e-06,0.0,0 STARLINK-5450,1 54778U 22175W   23308.30508217  .00000269  00000-0  34996-4 0  9992,2 54778  53.2187 273.6423 0001721  93.7966 266.3223 15.08849767 48682,6917.851,95.437,540.906,538.525,0.0
54778.0,STARLINK-5450,PAYLOAD,2023-11-04 15:16:16,15.0883293,0.0002067,53.2192,272.1567,82.0836,278.0391,-7.9864e-05,-1.559e-05,0.0,0 STARLINK-5450,1 54778U 22175W   23308.63629857 -.00001559  00000-0 -79864-4 0  9990,2 54778  53.2192 272.1567 0002067  82.0836 278.0391 15.08832930 48738,6917.902,95.438,541.197,538.337,0.0
54778.0,STARLINK-5450,PAYLOAD,2023-11-05 03:59:20,15.08844494,0.0001489,53.2164,269.7765,95.8626,264.2536,-8.1391e-05,-1.583e-05,0.0,0 STARLINK-5450,1 54778U 22175W   23309.16620969 -.00001583  00000-0 -81391-4 0  9999,2 54778  53.2164 269.7765 0001489  95.8626 264.2536 15.08844494 48810,6917.867,95.437,540.762,538.702,0.0
54778.0,STARLINK-5450,PAYLOAD,2023-11-05 07:10:06,15.0884917,0.0001717,53.2179,269.1789,94.8578,265.2611,-3.3459e-05,-8.21e-06,0.0,0 STARLINK-5450,1 54778U 22175W   23309.29868479 -.00000821  00000-0 -33459-4 0  9999,2 54778  53.2179 269.1789 0001717  94.8578 265.2611 15.08849170 50998,6917.852,95.437,540.905,538.53,0.0
54778.0,STARLINK-5450,PAYLOAD,2023-11-05 15:07:01,15.08844664,0.0001729,53.2189,267.6945,92.6947,267.4243,3.8562e-05,3.26e-06,0.0,0 STARLINK-5450,1 54778U 22175W   23309.62988380  .00000326  00000-0  38562-4 0  9998,2 54778  53.2189 267.6945 0001729  92.6947 267.4243 15.08844664 51040,6917.866,95.437,540.927,538.535,0.0
54778.0,STARLINK-5450,PAYLOAD,2023-11-06 02:14:42,15.08862206,0.0001942,53.2177,265.6157,86.9792,273.1422,0.00017925,2.567e-05,0.0,0 STARLINK-5450,1 54778U 22175W   23310.09354507  .00002567  00000-0  17925-3 0  9997,2 54778  53.2177 265.6157 0001942  86.9792 273.1422 15.08862206 48952,6917.813,95.436,541.021,538.334,0.0
54778.0,STARLINK-5450,PAYLOAD,2023-11-06 03:50:04,15.08876181,0.0002086,53.2193,265.3165,117.1893,242.9312,0.00021429,3.127e-05,0.0,0 STARLINK-5450,1 54778U 22175W   23310.15977229  .00003127  00000-0  21429-3 0  9993,2 54778  53.2193 265.3165 0002086 117.1893 242.9312 15.08876181 48965,6917.77,95.435,541.078,538.192,0.0
54778.0,STARLINK-5450,PAYLOAD,2023-11-07 03:40:56,15.08804475,0.000136,53.2174,260.8538,88.6545,271.4603,-0.00028554,-4.825e-05,0.0,0 STARLINK-5450,1 54778U 22175W   23311.15343214 -.00004825  00000-0 -28554-3 0  9999,2 54778  53.2174 260.8538 0001360  88.6545 271.4603 15.08804475 49113,6917.989,95.44,540.795,538.913,0.0
54778.0,STARLINK-5450,PAYLOAD,2023-11-07 13:13:15,15.08820011,0.0001509,53.2182,259.0717,89.9668,270.1497,-0.0002622,-4.456e-05,0.0,0 STARLINK-5450,1 54778U 22175W   23311.55086822 -.00004456  00000-0 -26220-3 0  9990,2 54778  53.2182 259.0717 0001509  89.9668 270.1497 15.08820011 51334,6917.941,95.439,540.85,538.763,0.0
54778.0,STARLINK-5450,PAYLOAD,2023-11-08 03:31:41,15.08848249,0.0001393,53.2176,256.3963,89.9418,270.1734,-8.4196e-05,-1.628e-05,0.0,0 STARLINK-5450,1 54778U 22175W   23312.14700722 -.00001628  00000-0 -84196-4 0  9993,2 54778  53.2176 256.3963 0001393  89.9418 270.1734 15.08848249 49260,6917.855,95.437,540.684,538.757,0.0
54778.0,STARLINK-5450,PAYLOAD,2023-11-09 03:22:28,15.08819755,0.0001326,53.2182,251.941,107.4244,252.6893,0.00032666,4.912e-05,0.0,0 STARLINK-5450,1 54778U 22175W   23313.14061139  .00004912  00000-0  32666-3 0  9997,2 54778  53.2182 251.9410 0001326 107.4244 252.6893 15.08819755 49412,6917.942,95.439,540.725,538.89,0.0
54778.0,STARLINK-5450,PAYLOAD,2023-11-09 06:33:15,15.08820715,0.0001466,53.2178,251.3416,87.1284,272.9876,0.0003316,4.991e-05,0.0,0 STARLINK-5450,1 54778U 22175W   23313.27309199  .00004991  00000-0  33160-3 0  9999,2 54778  53.2178 251.3416 0001466  87.1284 272.9876 15.08820715 51596,6917.939,95.439,540.819,538.79,0.0
54778.0,STARLINK-5450,PAYLOAD,2023-11-10 03:13:18,15.0881952,0.0001474,53.2173,247.4765,93.092,267.024,-0.00018959,-3.302e-05,0.0,0 STARLINK-5450,1 54778U 22175W   23314.13424039 -.00003302  00000-0 -18959-3 0  9992,2 54778  53.2173 247.4765 0001474  93.0920 267.0240 15.08819520 49562,6917.943,95.439,540.828,538.788,0.0
54778.0,STARLINK-5450,PAYLOAD,2023-11-10 12:45:36,15.08827984,0.0001486,53.2177,245.6935,96.5078,263.6083,-9.8927e-05,-1.862e-05,0.0,0 STARLINK-5450,1 54778U 22175W   23314.53167508 -.00001862  00000-0 -98927-4 0  9994,2 54778  53.2177 245.6935 0001486  96.5078 263.6083 15.08827984 51787,6917.917,95.438,540.81,538.754,0.0
54778.0,STARLINK-5450,PAYLOAD,2023-11-11 03:04:02,15.08859784,0.000147,53.2175,243.0151,94.9253,265.1907,2.6973e-05,1.42e-06,0.0,0 STARLINK-5450,1 54778U 22175W   23315.12781092  .00000142  00000-0  26973-4 0  9990,2 54778  53.2175 243.0151 0001470  94.9253 265.1907 15.08859784 49712,6917.82,95.436,540.702,538.668,0.0
54778.0,STARLINK-5450,PAYLOAD,2023-11-11 12:36:22,15.08848165,0.0001746,53.218,241.232,87.5829,272.5363,-4.3405e-05,-9.79e-06,0.0,0 STARLINK-5450,1 54778U 22175W   23315.52525948 -.00000979  00000-0 -43405-4 0  9999,2 54778  53.2180 241.2320 0001746  87.5829 272.5363 15.08848165 51935,6917.855,95.437,540.928,538.513,0.0
